{"type":"FeatureCollection","crs":{"type":"name","properties":{"name":"urn:ogc:def:crs:OGC:1.3:CRS84"}},"features":[{"type":"Feature","properties":{"shapeName":"Republic of Lebanon","shapeISO":"LBN","shapeID":"18678258B39466436101806","shapeGroup":"LBN","shapeType":"ADM0"},"geometry":{"type":"Polygon","coordinates":[[[36.383754615278065,34.63219998342248],[36.38072271994611,34.633585913713375],[36.378196140502666,34.63566476573311],[36.37482736791168,34.63829790349678],[36.370953279431944,34.640099475905515],[36.367584506840956,34.64245531923467],[36.364552611509,34.643841078164655],[36.36084696165875,34.64702823581587],[36.35838102012207,34.648785277297065],[36.35665620855542,34.65091363098293],[36.354931396988775,34.653041930025324],[36.353206585422186,34.65508149866446],[36.3516973753014,34.657475710854044],[36.34986476301191,34.65951517038866],[36.34878675578284,34.660933895245705],[36.347493147107855,34.662795934760084],[36.347493147107855,34.66545591862456],[36.34813995144526,34.66847046376927],[36.34878675578284,34.671307582526595],[36.349541360843205,34.67316938890394],[36.3516973753014,34.675208462157684],[36.35342218686799,34.6769815285291],[36.35288318325348,34.68035025005514],[36.35148177385571,34.683009670248],[36.34997256373492,34.68433934831364],[36.34673854204749,34.68628950418207],[36.344151324697464,34.68753048854461],[36.341025103733045,34.690012401460706],[36.33951589361226,34.691696514273985],[36.33703647698519,34.6931146879611],[36.33498826324973,34.69346922758615],[36.33283224879153,34.69302605281746],[36.33056843361038,34.69213969616146],[36.32711881047709,34.69089878089687],[36.32420819095836,34.69072150576898],[36.32075856782507,34.68983512443441],[36.31817135047521,34.68823961411374],[36.315476332402284,34.6864667888014],[36.31245791216071,34.68433934831364],[36.30890048830463,34.68203455942819],[36.30663667312342,34.68026160124418],[36.30480406083376,34.67591769326117],[36.30351045215883,34.673789981730124],[36.302432444929764,34.6711302654511],[36.30210904276106,34.6692684132409],[36.30070763336312,34.666785878533176],[36.3002764304714,34.66439193532614],[36.30146223842354,34.66164324856595],[36.30361825288185,34.65916048537929],[36.30545086517134,34.65658897366279],[36.30577426734004,34.654904146862066],[36.30523526372548,34.653041930025324],[36.30415725649641,34.65100231120056],[36.30210904276106,34.647721079963446],[36.3002764304714,34.64364153030607],[36.29898282179647,34.640980846304274],[36.29758141239853,34.63849746421408],[36.2959644015549,34.636280095937536],[36.29493382664384,34.635375392653316],[36.29238110552524,34.63304795376138],[36.2897593919439,34.63162875165517],[36.28803458037726,34.63094752602012],[36.28534387433331,34.631288139536935],[36.2835500703041,34.632253203573214],[36.28230820597611,34.63236673978054],[36.28079037179759,34.631685520205735],[36.27927253761891,34.63003921647169],[36.27768571097761,34.6287902746044],[36.27506399739627,34.62896058596624],[36.27292523105376,34.62998244679471],[36.27154538180042,34.62992567707886],[36.27023452500981,34.62913089697827],[36.267957773741784,34.62788194143735],[36.26512908277249,34.62720068503597],[36.26285233150463,34.6273142281579],[36.25967867822203,34.628109025661445],[36.255470137999396,34.62952828798035],[36.251951522403544,34.63089075696473],[36.248777869121,34.63213966721054],[36.24601817061426,34.6341265311234],[36.24422436658506,34.63429683153004],[36.242982502257064,34.634240064766686],[36.24111970576507,34.633785929260966],[36.23932590173587,34.63265057961911],[36.23691116554261,34.631231370714545],[36.23470340673731,34.62907412667977],[36.232357663006724,34.62748454254967],[36.23049486651473,34.62663296709508],[36.227114235844,34.625951700438634],[36.2246994996508,34.62561106501266],[36.22207778606963,34.62640587883112],[36.21993901972695,34.6273709996608],[36.217386298608346,34.62833610926407],[36.214074660400456,34.62992567707886],[36.210901007117855,34.63157198306584],[36.20848627092465,34.6327073474701],[36.20565757995536,34.6341265311234],[36.20275989652333,34.635715987989045],[36.200828107568725,34.63662423538034],[36.19882732615156,34.636737765604835],[36.19793042413687,34.63639717446483],[36.195929642719534,34.635715987989045],[36.1939288613022,34.6359998163673],[36.19254901204903,34.6365674702098],[36.191031177870286,34.63702159048648],[36.18951334369177,34.63719188494929],[36.187788532125126,34.637135120167045],[36.185856743170405,34.63639717446483],[36.18420092406649,34.63565922219698],[36.182959059738494,34.635375392653316],[36.18226913511194,34.634921263363424],[36.18028075077757,34.634278870175535],[36.178427925852645,34.63344732172624],[36.176575100927494,34.63178419981989],[36.17522759189109,34.62970525054834],[36.17388008285462,34.62790345237187],[36.17202725792947,34.62721044265402],[36.170848187522665,34.62804205362073],[36.16714253767259,34.629843848787175],[36.16208937878588,34.63164560482272],[36.15653090401065,34.63247717133311],[36.150298674717135,34.633863096992854],[36.14372956816459,34.634971820848875],[36.139181725166736,34.63580335401514],[36.1351391980574,34.63732780983588],[36.131601986836756,34.63996089480196],[36.126885705209304,34.642039587039676],[36.12351693261826,34.64328677737166],[36.121495669063506,34.64259389616967],[36.11964284413858,34.64079237794971],[36.11762158058383,34.63899082059311],[36.11526343977016,34.63732780983588],[36.11324217621541,34.63566476573311],[36.1091996491063,34.634833231177254],[36.10498868336731,34.635110410288746],[36.10195678803541,34.63566476573311],[36.09892489270345,34.63649629195254],[36.09740894503756,34.635526177219276],[36.096061436001094,34.63400168828525],[36.09471392696469,34.63247717133311],[36.093029540669136,34.62998244679454],[36.08966076807798,34.629428053375705],[36.087639504523395,34.63053683650878],[36.0861235568575,34.63219998342248],[36.08460760919144,34.63372450546882],[36.08140727522988,34.63469464127411],[36.07972288893433,34.63441746077336],[36.0777016253798,34.632061389119826],[36.07618567771374,34.629843848787175],[36.0739959755295,34.62901225588047],[36.07146939608623,34.62970525054834],[36.07012188704982,34.63150700959392],[36.06927969390205,34.63344732172624],[36.067089991717864,34.63580335401514],[36.06338434186779,34.636357704828185],[36.06018400790623,34.635248999497094],[36.0574889898333,34.63317013705739],[36.05529928764912,34.630259642114765],[36.05226739231716,34.62845785597847],[36.04940393561486,34.628873656252324],[36.04468765398718,34.629428053375705],[36.041150442766764,34.62928945444213],[36.03660259976874,34.628596456301295],[36.03340226580718,34.629843848787175],[36.030707247734256,34.63095262636307],[36.02683315925458,34.63303154437551],[36.0231275094045,34.635110410288746],[36.020432491331576,34.63691205193618],[36.0163899642223,34.63926798581065],[36.01386338477903,34.64217816466959],[36.01083148944707,34.64411822717153],[36.007125839596995,34.646058244282585],[36.002409557969315,34.64633538587867],[35.99870390811924,34.64619681519628],[35.99550357415768,34.646058244282585],[35.99264011745538,34.646612526548324],[35.99061885390063,34.64938388229393],[35.98842915171639,34.65104665127387],[35.985228817755,34.651462338307624],[35.98236536105253,34.65104665127387],[35.98101785201624,34.64966101277338],[35.98000722023886,34.647998216001156],[35.978996588461484,34.6443953752522],[35.97748064079559,34.64176243108517],[35.9769753249069,34.63857507102995],[35.97596469312953,34.63538758847403],[35.97545937724101,34.63122981844157],[35.976133131759184,34.62928945444213],[35.97748064079559,34.626240219324586],[35.97815439531371,34.62443834589919],[35.978996588461484,34.6218047682014],[35.98101785201624,34.61667598230673],[35.98303911557082,34.61224002000671],[35.98489194049597,34.60600154696931],[35.986913204050495,34.59782150550791],[35.98893446760508,34.593107217388706],[35.99078729253023,34.58950199301563],[35.99099615643081,34.547980725999196],[35.9903493520934,34.54416265828405],[35.9887323412496,34.53901242901219],[35.986576326791464,34.53288501708005],[35.98485151522482,34.52844458171717],[35.9820486964291,34.52435917205753],[35.979138076910374,34.52116175514391],[35.97719766389787,34.51956300066081],[35.974826047993645,34.51760892573526],[35.97223883064379,34.51689834167132],[35.970298417631284,34.517075988255556],[35.96846580534185,34.51743128028761],[35.966525392329345,34.51849714729258],[35.964045975702334,34.51947418006762],[35.96221336341284,34.51947418006762],[35.959949548231634,34.51867479046757],[35.95844033811085,34.517253634460815],[35.956392124375384,34.515210680229075],[35.95583838692232,34.51483492874314],[35.95455951208589,34.51396711834417],[35.9527268997964,34.51245705396076],[35.95057088533804,34.51139110968427],[35.94744466437345,34.510058660163395],[35.94453404485489,34.50890385334543],[35.94162342533616,34.506683026026565],[35.940114215215374,34.503662605904196],[35.938173802202925,34.50028671271417],[35.93235256316558,34.49522261659337],[35.929549744369865,34.49264602858199],[35.9275015306344,34.48935854208224],[35.92545331689905,34.48607092598894],[35.91092177945035,34.47269521246585],[35.907472156317056,34.47042009698674],[35.90395354072098,34.46996506644814],[35.90036593266257,34.46951003342872],[35.89498452057467,34.46939627478622],[35.89201784468008,34.46916875703596],[35.88939613109869,34.46814491948504],[35.8875333346067,34.467348592707026],[35.88456665871229,34.465528388685186],[35.8820829300563,34.46439074101545],[35.879461216474965,34.46353749508836],[35.87511037929818,34.463231746508654],[35.87069054965866,34.46189852740554],[35.86551611495872,34.4606541703663],[35.86141968748808,34.45994310087394],[35.85667645567986,34.458609829252794],[35.852795629654906,34.45709876234457],[35.84686658989477,34.457365423197814],[35.84244676025526,34.45789874234953],[35.83996734362819,34.45780985606075],[35.83824253206154,34.45709876234457],[35.83684112266377,34.45540989049812],[35.833391499530535,34.45478766594431],[35.82972627495138,34.45612099859676],[35.82735465904716,34.45754319662689],[35.823905035914095,34.45967644825288],[35.82196462290159,34.458965370433475],[35.82023981133494,34.45798762854355],[35.818838401937,34.45603211041566],[35.81679018820165,34.454254326922296],[35.81377176796008,34.45469877634389],[35.81226255783929,34.456209886683325],[35.81032214482684,34.45745430995959],[35.809244137597716,34.45727653634134],[35.807627126753914,34.45603211041566],[35.80611791663313,34.45380987513528],[35.8051477101269,34.451587580718694],[35.8048243079582,34.44918743632894],[35.8051477101269,34.446965018914966],[35.806333518078986,34.444120238341554],[35.806980322416564,34.442608909258695],[35.80751932603113,34.440297411895585],[35.80773492747693,34.438252572459135],[35.80816613036848,34.43647441053298],[35.8091363368747,34.434073831911746],[35.808597333260195,34.432651234262835],[35.80827393109149,34.431139697728156],[35.81032214482684,34.430072714304],[35.8129093621767,34.428561131137315],[35.81409517012878,34.42749411479696],[35.816897988924495,34.42473759287799],[35.81797599615379,34.42215882879748],[35.81840719904528,34.41922427636689],[35.81840719904528,34.415400311091446],[35.81765259398492,34.412020847399276],[35.81614338386413,34.40899700098015],[35.81467729403255,34.4072609079945],[35.809295881944706,34.40452862311332],[35.80522532664742,34.40253627579915],[35.80156872612616,34.40048695478089],[35.79729119344097,34.39798216093135],[35.79384157030768,34.39559115140821],[35.790322954711826,34.393143142316774],[35.7858384446385,34.39023959685295],[35.78093997978931,34.387620626319745],[35.775351590313505,34.38460301520854],[35.77003917068822,34.38272407032849],[35.76748644956962,34.38186999053528],[35.76224302240712,34.3815852953349],[35.75272206255926,34.38010486469017],[35.746098786143364,34.37925075818197],[35.74154528360765,34.378510525495244],[35.73830263786232,34.37748557712712],[35.73692278860898,34.37498009497523],[35.73609487905702,34.37258842845779],[35.73526696950506,34.37053837423275],[35.73505999211699,34.368431321776484],[35.73443905995316,34.365982518555825],[35.733197195625166,34.36433095969198],[35.73181734637183,34.36302107951428],[35.72960958756653,34.361938989140356],[35.72829873077575,34.36062907157111],[35.72843671570109,34.3592052249021],[35.72905764786509,34.357838309340934],[35.72960958756653,34.35595876404216],[35.729747572491874,34.353452638079034],[35.72912664032788,34.349921151590536],[35.72788477599988,34.34775661859737],[35.72664291167189,34.34542113874625],[35.72664291167189,34.3441109630304],[35.727056866447754,34.34319952437164],[35.72829873077575,34.34160448288128],[35.72878167801457,34.339952443640584],[35.728643693089225,34.3380724973328],[35.728091753387844,34.33567977745139],[35.7273328362985,34.333913678519025],[35.7263669418212,34.33191965116373],[35.72491810010524,34.3294128066712],[35.72381422070259,34.32753262414576],[35.72243437144925,34.325025648572705],[35.721054522196084,34.32189182377891],[35.72084754480795,34.31885403873247],[35.71998513902474,34.315025489492314],[35.7182603274581,34.311998140889386],[35.71631991444559,34.30941590434304],[35.71405609926444,34.306744541584294],[35.71092987830002,34.30549787654576],[35.70823486022715,34.30487453708605],[35.70500083853972,34.30514168313533],[35.70187461757513,34.306299306195115],[35.69928740022527,34.30923781613666],[35.696807983598205,34.31164197505302],[35.69346616118776,34.31333374931876],[35.69012433877754,34.313778947406604],[35.6862435127527,34.31360086845484],[35.68333289323397,34.31306662933275],[35.68139248022146,34.3123543052148],[35.67891306359445,34.31092963884737],[35.676972650581945,34.309148771891614],[35.675355639738314,34.307100728195906],[35.674493233954934,34.30558692466235],[35.67352302744871,34.30371689438539],[35.6725528209426,34.3018468224671],[35.67179821588206,34.299531437637654],[35.671367012990515,34.296414472651236],[35.67061240793015,34.29356457487853],[35.66899539708635,34.29098177151411],[35.667701788411364,34.28928954694885],[35.66500677033849,34.28741915383131],[35.6626351544345,34.28572685751794],[35.66091034286785,34.283589171358074],[35.65862631505104,34.28193020035644],[35.65609973560777,34.279146618401114],[35.654583787941874,34.27636294426458],[35.654583787941874,34.274414317523224],[35.65525754245999,34.27149129272533],[35.6564366128668,34.269820947215806],[35.65778412190326,34.26815056852513],[35.659468508198756,34.266201751449955],[35.6601422627171,34.26494891662526],[35.659973824087444,34.263835270002346],[35.659468508198756,34.26202556278986],[35.659131630939726,34.25979817738357],[35.659131630939726,34.25798838331218],[35.657278806014574,34.25659620753186],[35.656605051496456,34.255204008713406],[35.657278806014574,34.25353333972146],[35.65812099916235,34.25158418396995],[35.65879475368064,34.248660365683634],[35.659973824087444,34.246989566766274],[35.66115289449425,34.245318734678335],[35.66115289449425,34.243230147923384],[35.66064757860579,34.240445284965006],[35.659300069569326,34.23724257866451],[35.657447244644175,34.23431826215591],[35.65609973560777,34.23167236446312],[35.65559441971908,34.22916564785288],[35.654583787941874,34.22540543303404],[35.65289940164615,34.2220628789284],[35.652225647128034,34.21927731585362],[35.65087813809163,34.215377372812895],[35.64851999727796,34.21217371312957],[35.64844871760084,34.21211055642999],[35.64616185646412,34.210084304238705],[35.64296152250256,34.20771624487236],[35.64043494305929,34.205487422335864],[35.63773992498642,34.20214407802615],[35.63687078165793,34.200355334372716],[35.63546937226016,34.19839380237772],[35.634606966476724,34.19634306104331],[35.63449916575388,34.194292269831465],[35.63471476719974,34.1903688781058],[35.635577172983005,34.187604560700095],[35.636223977320526,34.18528603108291],[35.63546937226016,34.183591680676784],[35.63471476719974,34.181094681207014],[35.633744560693515,34.178419242620976],[35.63309775635594,34.175565347954034],[35.63266655346422,34.17217622267282],[35.63298995563309,34.16789502777738],[35.633960162139374,34.16405960628515],[35.63385236141636,34.16174042968271],[35.632774354187234,34.16022401053601],[35.631480745512306,34.157993932903764],[35.63018713683738,34.15558538290736],[35.62846232527073,34.15264150628826],[35.626737513704086,34.1499651657698],[35.625875107920706,34.147824032296796],[35.625875107920706,34.14577206179126],[35.62598290864372,34.14389847997376],[35.626953115149945,34.14220329871722],[35.629324731054,34.139794298424135],[35.63255875274143,34.137920584046526],[35.6352537708143,34.13684987146286],[35.638487792501735,34.135957600613665],[35.64064380696004,34.134173030652846],[35.640104803345366,34.132120728614154],[35.64053600623703,34.12908679953608],[35.64290762214125,34.12712361092969],[35.642260817803674,34.12489265944663],[35.64150621274331,34.12275089063735],[35.64193741563497,34.121055285186856],[35.64344662575576,34.11962738054024],[35.64474023443074,34.118020958991906],[35.646788448166035,34.11677149891267],[35.64840545900984,34.115789767329034],[35.65002246985347,34.113380014218365],[35.65047523288979,34.08800739612326],[35.64959126696175,34.085618279097844],[35.64851325973268,34.083921929372764],[35.64754305322646,34.08222554566373],[35.646572846720176,34.07918982684146],[35.64474023443074,34.07704690097978],[35.64323102430973,34.07365382414804],[35.641829614911956,34.071600053720715],[35.64129061129745,34.06865325266028],[35.64085940840573,34.06606355499457],[35.641182810574435,34.06347377817775],[35.64107500985159,34.06186629068901],[35.64032040479117,34.05900845986599],[35.6395657997308,34.05740088768022],[35.63740978527244,34.05615053267866],[35.636223977320526,34.05409633799263],[35.633313357801796,34.05150619548152],[35.63158854623515,34.048558695674274],[35.62975593394549,34.04561109340074],[35.62835452454772,34.04257406267976],[35.62598290864355,34.03900094611663],[35.62576730719786,34.03712499966241],[35.62619851008941,34.03471300754563],[35.626953115149774,34.03256895697939],[35.626521912258056,34.030960883495936],[35.62501270213727,34.02935277953412],[35.62285668767913,34.026940566446],[35.62188648117291,34.024885664173325],[35.62167087972705,34.02274136527308],[35.62231768406457,34.019971565676315],[35.62479710069147,34.01773779048574],[35.62684531442693,34.01666555751484],[35.63029493756022,34.01568266539408],[35.633528959247656,34.01461040646552],[35.63660774789406,34.01392415364404],[35.63957442378853,34.01238006451405],[35.64129923535518,34.01043561603427],[35.64198915998196,34.008662697729676],[35.64281706953386,34.005860267494256],[35.64295505445921,34.003400915794714],[35.64281706953386,34.000083537899854],[35.64226512983248,33.9968232299463],[35.64033334087787,33.99407761040834],[35.63859559322458,33.991642943862814],[35.63719418382658,33.98887212981015],[35.635361571537146,33.98636938139822],[35.63320555707878,33.98520736601034],[35.630833941174785,33.9846710458574],[35.62835452454772,33.98449227172091],[35.625875107920706,33.98511797955314],[35.62371909346234,33.98592245428301],[35.62070067322077,33.98636938139822],[35.61735885081032,33.98619061083417],[35.6156340392439,33.98538613864258],[35.61380142695424,33.983509007249495],[35.61250781827931,33.981274272966346],[35.611645412496046,33.97912887278085],[35.6102440030981,33.977787970169686],[35.60776458647109,33.97582127474948],[35.60571637273574,33.97385453383515],[35.603344756831575,33.971619545757164],[35.601727745987944,33.968669271546105],[35.60021853586716,33.9665235532874],[35.599679532252594,33.964467189158086],[35.59903272791507,33.961606078101795],[35.59741571707127,33.95883428499741],[35.596782649173235,33.95813415298403],[35.59515190189006,33.956330652313454],[35.592995887431925,33.9538269459573],[35.591378876588124,33.9506972094141],[35.590300869359,33.94613653010754],[35.58879165923821,33.941665038645624],[35.58749805056328,33.936656689364554],[35.586204441888185,33.93155860272958],[35.5846952317674,33.92601296898022],[35.583509423815315,33.92180878021367],[35.58135340935712,33.91733601120745],[35.578981793452954,33.91304193206685],[35.57725698188631,33.9107158821879],[35.57413076092189,33.907047751472646],[35.57024993489688,33.904274181988],[35.566584710317954,33.90167947077663],[35.562703884292944,33.89971101649189],[35.55817625393058,33.89827938483154],[35.55461883007433,33.8975635599877],[35.55138480838707,33.89792147316075],[35.54815078669964,33.899263634180045],[35.54480896428919,33.90078472446277],[35.541359341155896,33.90203736667314],[35.54022614764483,33.9023814647187],[35.53693951151638,33.90337946290447],[35.533058685491596,33.904542595881935],[35.528315453683376,33.905437302758344],[35.523572221875156,33.90534783249319],[35.5200104859901,33.905197522236506],[35.51690582517011,33.90542656633153],[35.512766277410265,33.906858077982406],[35.50986859397818,33.90823230655104],[35.50772982763567,33.90874763655245],[35.504901136666376,33.90840408356445],[35.50352128741304,33.90806052919157],[35.50117554368239,33.906800817978024],[35.498898792414536,33.905999173876694],[35.495449169281244,33.904109554381535],[35.492620478312006,33.90347967190877],[35.4884809305521,33.90416681619371],[35.484755337568345,33.904853954940336],[35.48089175965896,33.90451038625923],[35.47875299331645,33.90422407796751],[35.47668321943638,33.90376598270058],[35.475234377720426,33.903422409635084],[35.47350956615378,33.90233441912619],[35.471784754587304,33.90118915095951],[35.46999095055793,33.89935668989432],[35.46826613899128,33.8971233247247],[35.46826613899128,33.89557711457206],[35.46819714652867,33.89248461016257],[35.468809454634766,33.890583952858094],[35.46934845824933,33.88888370563262],[35.471504472707636,33.887183424516365],[35.47344488572014,33.885214635622106],[35.47484629511791,33.88431971655916],[35.47700230957628,33.88261934447746],[35.47786471535966,33.87993447745862],[35.4779725160825,33.877160026120634],[35.479373925480445,33.87438548457902],[35.47991292909501,33.87340094815653],[35.47991292909501,33.871700358495275],[35.47991292909501,33.87008924229872],[35.479658470586,33.868990583026005],[35.479373925480445,33.86776202077442],[35.479589526926134,33.86561375997974],[35.480128530540696,33.86382350135716],[35.481422139215795,33.862301752013366],[35.48227106990862,33.82811119236783],[35.48227106990862,33.8261522353929],[35.4815973153905,33.821114711366874],[35.480249806354095,33.81229833027061],[35.47923917457672,33.80460074669185],[35.47923917457672,33.80012183394524],[35.477891665540255,33.794942798882175],[35.47654415650379,33.790883336134755],[35.4748597702083,33.78808359450352],[35.47401757706052,33.786263713350706],[35.47368069980149,33.78374381405615],[35.4731753839128,33.78206383999918],[35.47182787487634,33.78066383644523],[35.470143488580845,33.77856378820627],[35.46896441817404,33.776463688478884],[35.46711159324889,33.773663475419255],[35.46610096147151,33.77142323907117],[35.46475345243505,33.76862286126351],[35.462220293357746,33.765735422769126],[35.45999966689402,33.76241247818746],[35.45703883160883,33.76032018772372],[35.45481820514493,33.75773552310892],[35.45230149515271,33.75453535418296],[35.450376952217425,33.75084270314079],[35.448896534574715,33.74813465797013],[35.447860242224976,33.74628821450318],[35.44667590811099,33.7425952083056],[35.44563961576114,33.7391482590578],[35.44445528164715,33.73594739644784],[35.443715072825796,33.73262329733615],[35.442678780476115,33.72831408830103],[35.442234655183256,33.72080323535323],[35.44235493911668,33.71090575965485],[35.44096704757686,33.70878912183588],[35.43934784078027,33.705902713466514],[35.43819126449699,33.703593516930084],[35.43819126449699,33.700899375844074],[35.437034688213714,33.698590044806735],[35.43425890513407,33.696473103492224],[35.43102049154095,33.696088199467454],[35.428013393204424,33.69493347704844],[35.42500629486801,33.69493347704844],[35.421305250761634,33.693586281280204],[35.41991735922164,33.692239064391],[35.417604206655255,33.69069936208456],[35.41575368460195,33.689352099937764],[35.414597108318674,33.6868499856339],[35.415059738832156,33.684347798491615],[35.41691026088523,33.681653053960304],[35.417604206655255,33.6629800040792],[35.41691026088523,33.65951445608056],[35.41552236934541,33.65643385178589],[35.413671847292164,33.65239039128221],[35.41228395575229,33.65065742148187],[35.409508172672474,33.648731858558506],[35.40626975907935,33.6477690609434],[35.401874769203005,33.64603599809885],[35.40002424714987,33.643532623505735],[35.39840504035334,33.6392959775975],[35.39863635560988,33.63467394431677],[35.39901522409292,33.614680066657854],[35.397378000613855,33.612870009925814],[35.39604562473539,33.61003432261947],[35.39412108180011,33.608061615562406],[35.39130828827933,33.60608886336399],[35.38953178710824,33.60522577008288],[35.3877552859372,33.60423936718183],[35.3868670353516,33.60300634768663],[35.3868670353516,33.60189661506564],[35.38908766181544,33.60078686816291],[35.38923570357974,33.59930718341025],[35.38923570357974,33.59721091988371],[35.38834745299408,33.59573117377602],[35.38745920240865,33.59338819051851],[35.38701507711585,33.59055186247741],[35.386780085751184,33.58927945820875],[35.386422910289184,33.5873454663203],[35.3842022836086,33.58352229991431],[35.38272186552183,33.5808089823488],[35.38153753213152,33.57747888454293],[35.3805012397404,33.57513540597421],[35.378724738755864,33.572051783563154],[35.37680019497304,33.56946145638125],[35.37517173588708,33.56748782130592],[35.37354327680089,33.56588420958877],[35.37073048342512,33.56502071383494],[35.36836181484597,33.56267689712121],[35.36762160625216,33.55922273424193],[35.36688139675914,33.55552169307168],[35.365697063368884,33.55182049362094],[35.36421664528211,33.54614501158318],[35.363174431754715,33.54155006678235],[35.36232171077836,33.53539018650787],[35.36109000380071,33.530256617049304],[35.35957405529854,33.52504375886241],[35.35777386796974,33.520383512489275],[35.356826400717864,33.5172238811773],[35.35578418629126,33.51517005895124],[35.35398399896246,33.512089234330745],[35.352373304184766,33.50987729240313],[35.350004635605615,33.50821829863571],[35.34754122075077,33.50711228540382],[35.34545679279694,33.50561124406369],[35.34308812511699,33.50442619391379],[35.34071945653784,33.50300411125073],[35.33967724301044,33.50039690019696],[35.33844553513342,33.49810564975604],[35.33721406467731,33.496226976793594],[35.33416416684298,33.493814329567726],[35.33164745726447,33.491098195325606],[35.32957487248245,33.48825850772408],[35.32735424580187,33.4861595494238],[35.324985578122096,33.483443174163256],[35.32276495144151,33.48171452700393],[35.320248241863,33.47936845119318],[35.31847173997886,33.477763205407655],[35.317287406588605,33.475417022577574],[35.31654719709559,33.47381170304783],[35.314474612313575,33.4714654131983],[35.3125500694303,33.47035399054431],[35.30958923415591,33.46899556549312],[35.306480356983,33.46776061556005],[35.30381560550592,33.4657846593347],[35.302335188318295,33.465043663834194],[35.29878218544968,33.46331464975134],[35.296413517769736,33.46269713656375],[35.29241639010445,33.46158560149445],[35.28975163772799,33.4602270397462],[35.286790802453595,33.45812740155844],[35.286198635758524,33.45615122499913],[35.28516234336763,33.453680941122684],[35.28368192528069,33.45182818212504],[35.28249759189055,33.44935777594071],[35.281313257600914,33.446763773229634],[35.279832839514086,33.444046162300594],[35.27761221373271,33.44157553398372],[35.27598375374737,33.4391048355198],[35.27494746135625,33.43651052614001],[35.274355294661234,33.43268068946236],[35.272430751777904,33.4286035805909],[35.27021012509732,33.426008957347676],[35.26902579080769,33.422302217173694],[35.26754537362007,33.418224620869694],[35.266361039330604,33.41389968851985],[35.2645845383459,33.40747367726857],[35.26236391166532,33.40351897242283],[35.26088349357855,33.4009235991449],[35.258514825898544,33.39733938530452],[35.25703440781177,33.39449662741748],[35.25585007442152,33.39140656765903],[35.25555399062421,33.38942887214483],[35.25540594872564,33.38683307888357],[35.25496182302976,33.38238296630101],[35.25392553063887,33.38028144493285],[35.25288923914712,33.37793262529061],[35.252000987755366,33.376201876415564],[35.25081665436528,33.373111166447245],[35.2503725286694,33.370514885753494],[35.24978036197416,33.36779488892307],[35.24978036197416,33.36458023798775],[35.2490401524812,33.36148911523054],[35.24889211148184,33.35864518552705],[35.2485960276847,33.35604847315858],[35.24815190198882,33.35320436538916],[35.24770777719232,33.350854815497485],[35.24696756769919,33.34677386742021],[35.246523442902685,33.34430047188937],[35.245339108613166,33.34195068097921],[35.24371064952703,33.339106113656385],[35.24371064952703,33.336236506509636],[35.24371064952703,33.328840160045445],[35.24282239903465,33.32723212995893],[35.24104589715057,33.32562407109401],[35.239713521861574,33.32451078144743],[35.238233103774746,33.32315007481617],[35.23645660279004,33.321418235962824],[35.23468010180534,33.3204285986011],[35.23423597610946,33.319315242404684],[35.23408793421089,33.31708848864287],[35.23364380941439,33.31523281674123],[35.232607517023325,33.31325338913274],[35.23068297414005,33.31152135422718],[35.22890647315529,33.30978928424821],[35.22712997127121,33.308180902526715],[35.224909345490005,33.30595386368003],[35.222392635012284,33.30422168308428],[35.22254067691085,33.29766383122097],[35.22150438451979,33.296426445024395],[35.21957984163646,33.29370413423857],[35.21972788353503,33.2856604476716],[35.218987674941275,33.28442289150331],[35.217655298753186,33.28256652442565],[35.216322922564984,33.28083387977978],[35.21499054727593,33.27934872766184],[35.21380621298647,33.277863551262044],[35.212177753900335,33.276254581383796],[35.209364959625304,33.27452181083294],[35.20744041674203,33.27316032448954],[35.20536783196002,33.273036551695554],[35.20344328907652,33.27229391313375],[35.20181482999055,33.2725414596207],[35.19989028710711,33.27328409728335],[35.19885399471616,33.27464558092879],[35.197225535630025,33.27563573809891],[35.196485326137065,33.27501689121658],[35.19589315944182,33.27340786917796],[35.195597075644685,33.270313511559436],[35.195597075644685,33.26845684410819],[35.19678140993415,33.26635257441194],[35.198261828020975,33.26536231112192],[35.201518746193244,33.264372037939324],[35.204035456671136,33.263629325632905],[35.20595999955441,33.26152493812549],[35.20788454243768,33.258925331738794],[35.2089208348288,33.256820831816015],[35.210105169118265,33.254963877480975],[35.21128950250858,33.2243803610649],[35.210845377712076,33.2215319590328],[35.208476709132924,33.21546331498007],[35.2075884586406,33.213605482007495],[35.20684825004679,33.208527205566156],[35.20581195765584,33.204191858167746],[35.205219790960655,33.20171442018443],[35.203295248077325,33.19923691295327],[35.20033441280299,33.19713097591392],[35.198261828020975,33.19502498851256],[35.19678140993415,33.191308416050674],[35.19515295084818,33.1875916871067],[35.19411665845706,33.184494291578346],[35.19189603177648,33.18090117624831],[35.1915999479794,33.17817526547617],[35.19071169748702,33.17557318145714],[35.190267572690516,33.17346667604636],[35.188639112705005,33.17111228600322],[35.18715869551738,33.168633912724886],[35.18553023553204,33.166899008982114],[35.18360569264877,33.165287996743814],[35.1821252754612,33.163553028249794],[35.18020073257793,33.16243767196107],[35.16820934958184,33.16218981340921],[35.16628480669857,33.16095050985825],[35.16569263910412,33.158347914125045],[35.16539655620619,33.156117055857464],[35.16406418001799,33.15413402376623],[35.161843553337405,33.15277066323563],[35.159919010454075,33.149919931959346],[35.160605924324045,33.14413390075907],[35.159942697697375,33.14254726194673],[35.15890048327077,33.14159526480978],[35.1574792828427,33.14096059435599],[35.15539485398938,33.139770574552415],[35.15444738673767,33.1378665101314],[35.15321567975985,33.13501033525881],[35.151889225607306,33.132947484738736],[35.15056277145487,33.13088458565517],[35.148857330401654,33.1289803278799],[35.1472466356239,33.127234722204776],[35.145635941745354,33.12564777762299],[35.14459372731875,33.124457550076045],[35.1432672731662,33.12382275641522],[35.142225058739655,33.123346657122624],[35.14061436486111,33.122870556031444],[35.13909841725825,33.12247380302375],[35.137582469655285,33.121918344855715],[35.1367297486791,33.12120418062841],[35.13502430762583,33.11993454024696],[35.13331886657261,33.118823589736905],[35.131423932068856,33.117791980115896],[35.12896051721418,33.11731584844773],[35.12630760890909,33.116601646448885],[35.12479166130623,33.11588743905412],[35.12261248617739,33.11493515233548],[35.120717551673806,33.114141572575534],[35.11910685689611,33.11326862674582],[35.117590909293085,33.11255439147203],[35.11607496169029,33.11160206967992],[35.11455901408726,33.110411651476625],[35.113043066484465,33.109300580457614],[35.11171661233186,33.107633947848456],[35.110579651629735,33.10628474624417],[35.10811623677506,33.104141853363956],[35.10707402234834,33.103110071972424],[35.10648518674208,33.101102278847236],[35.106716501365554,33.09838939115764],[35.10602255569643,33.09490126987782],[35.10602255569643,33.0929633648675],[35.10694781688835,33.092381985540214],[35.109492284941155,33.09141301010237],[35.112962013286335,33.09025022626696],[35.12178599123058,33.09042392852166],[35.12509762955199,33.09059733669784],[35.12744337351302,33.089845900967646],[35.1303410565946,33.089267869816524],[35.134342619716165,33.089152262866776],[35.13717131040784,33.089094459841476],[35.14041395633916,33.089614688866845],[35.14411367730446,33.08982422550764],[35.14713209706872,33.088830730953646],[35.14864130785014,33.08702434909446],[35.15101292350778,33.08792754452065],[35.152306531721194,33.08846945799917],[35.15521715155046,33.08792754452065],[35.15618735816008,33.087114668906906],[35.15640295982888,33.084314707058184],[35.15661856149745,33.08286953070433],[35.160714988705934,33.0833211504509],[35.164595814245615,33.085308251974425],[35.16685962996809,33.08666306894554],[35.169554648128496,33.08846945799917],[35.17224966628913,33.08991454262218],[35.17516028521902,33.09063707594049],[35.177316300107236,33.090908023686495],[35.18152052814992,33.08955327326498],[35.18518575292018,33.08720498871929],[35.187988571015865,33.085308251974425],[35.19230060079212,33.082327583051494],[35.19575022389381,33.08160498138483],[35.19866084282364,33.08169530749251],[35.203943078310544,33.08286953070433],[35.20663809647101,33.084314707058184],[35.2082551071876,33.08702434909446],[35.20750050224643,33.089011366981026],[35.20696149897418,33.09154023359491],[35.20890191129422,33.09415934088099],[35.211489128620485,33.09578495451211],[35.21536995505954,33.097681464627954],[35.21752596994759,33.0977717736485],[35.22205359959406,33.09722991862594],[35.2245330160859,33.09605588696974],[35.227982640086964,33.09406902826316],[35.230569857413,33.09208212459049],[35.23358827717726,33.09027580928125],[35.236067693669156,33.08955327326498],[35.241349929156,33.088921048967336],[35.24404063506728,33.0900771130685],[35.2509398812706,33.0912909631075],[35.25611431592307,33.09186898166831],[35.2619786753757,33.0924469957323],[35.26880892918888,33.09308280742573],[35.27432832669098,33.09412321601366],[35.27867485176307,33.09522141143907],[35.283159361615276,33.09672418397395],[35.28509115033643,33.0981691327994],[35.288954728677936,33.100018632653814],[35.29102450217914,33.10065438948857],[35.29288729851021,33.101983683700155],[35.295578005320806,33.10209927356266],[35.29716483119205,33.101347936757975],[35.29848199167742,33.100354874556956],[35.29923460546348,33.09978744715659],[35.301097401955474,33.09822693004321],[35.303236168297985,33.09597280085592],[35.30682377635662,33.09458561570216],[35.31199821105656,33.09452781584565],[35.31496488695103,33.095857202929096],[35.31648272112972,33.09730216608733],[35.31806954777102,33.09759115586877],[35.319518389486916,33.09730216608733],[35.321933125680346,33.095857202929096],[35.32407189202286,33.093892014916605],[35.3257967035895,33.092331393140796],[35.32683159052954,33.090308323681484],[35.328004462394745,33.0880539914495],[35.32731453776819,33.08579960142089],[35.32648662821623,33.084123222651556],[35.32531375635085,33.081984348172966],[35.325244763888236,33.080307896679074],[35.326348643290885,33.07892046438184],[35.32731453776819,33.07730176570897],[35.329867258886736,33.07545178789553],[35.33214401015465,33.07400646565958],[35.33428277649733,33.07313926092081],[35.336145572989324,33.071578270850466],[35.33759441470528,33.06909219245381],[35.33876728657049,33.06724204201453],[35.34000915089848,33.064582382610354],[35.341320007689035,33.06273213735807],[35.34221690970378,33.06128660619095],[35.343941721270426,33.058684590266466],[35.346977389627625,33.05700769480501],[35.35125492231282,33.055157290330044],[35.3535316735809,33.05371163477315],[35.357602228877965,33.05267074807455],[35.361120844474044,33.05186116102385],[35.365191399771106,33.05186116102385],[35.36781311335244,33.05128288000185],[35.370917774172426,33.05076242383495],[35.37381545760434,33.05001064838524],[35.37595422394702,33.0499528192388],[35.37809299028953,33.05047328019066],[35.37947283954287,33.05180333309261],[35.38023175663221,33.052728575436106],[35.38140462849748,33.05400076778352],[35.381818583273514,33.055041638759064],[35.384078086425745,33.05631018362271],[35.41038146281687,33.057123343793364],[35.411351669323096,33.058117196024284],[35.41350768378129,33.0592917341952],[35.4159871004083,33.06028556194542],[35.433235216074536,33.061008338716306],[35.4356068319787,33.06353801067689],[35.43690044065363,33.066067609932475],[35.43830185005157,33.06904882999794],[35.439918860895204,33.071939613607924],[35.44110466884729,33.074378638405165],[35.44293728113695,33.0775402365806],[35.444877694149284,33.08025008743704],[35.447357110776295,33.08259855731677],[35.44875852017424,33.08404373838209],[35.45091453463243,33.086211465452436],[35.455320889181564,33.08867267411847],[35.48547140387166,33.08966052519514],[35.48648203564903,33.08839042891526],[35.49035612412871,33.08768481194346],[35.493724896719755,33.08754368786981],[35.5002940032723,33.08683806410346],[35.50315745997466,33.08585018131811],[35.50618935530679,33.086979189309716],[35.506694671195305,33.090083886544676],[35.5055156007885,33.11139044069148],[35.51107407556367,33.112095867375274],[35.522191025114296,33.112942371918564],[35.52572823633494,33.11590507358494],[35.52690730674175,33.11900874910617],[35.52987640815269,33.123538564175135],[35.5311872649433,33.12631199847641],[35.53146323479399,33.12983644483177],[35.53070431770465,33.13180082893376],[35.52946245337665,33.13422736037245],[35.528841521212655,33.13694268506981],[35.52918648352596,33.13977346605793],[35.52966943076461,33.14283522841515],[35.5305663327793,33.144857088385436],[35.53167021218195,33.146763370828126],[35.53222215188316,33.14826526115684],[35.5327740915846,33.15063357443495],[35.5333950237486,33.15282853940636],[35.53415394083777,33.15565880789859],[35.53553379009111,33.15796916344942],[35.53617143136722,33.160333604938046],[35.53852957218089,33.16597371364452],[35.53970864258787,33.17147247030499],[35.54189834477205,33.1793675176466],[35.54425648558572,33.18627510060571],[35.545267117363096,33.195719281532604],[35.543582731067545,33.20107523006675],[35.54122459025376,33.20586711683853],[35.53852957218089,33.21009503440075],[35.53785581766272,33.216295610735585],[35.53852957218089,33.22179120882669],[35.540045519846956,33.22686376221253],[35.54442492421532,33.2326404786225],[35.5466146263995,33.23503559059367],[35.54897276721317,33.24010737585223],[35.55032027624958,33.24222053287622],[35.549875598267704,33.247917349712054],[35.55246281561756,33.252515103194014],[35.556020239473696,33.25585057685839],[35.560008866221494,33.25981692033764],[35.5622726814027,33.26324225387975],[35.563889692246505,33.267027992573844],[35.56464429730687,33.2708135671715],[35.56507550019859,33.274959484389],[35.56604570670481,33.27919532691055],[35.56669251104222,33.28243966302887],[35.568632924054725,33.2853234161214],[35.5716513442963,33.28766639534888],[35.573268355139874,33.28775650867834],[35.57542436959824,33.28712571341805],[35.57822718839412,33.28577399393504],[35.58049100357516,33.28415190291918],[35.58329382237105,33.281898948716616],[35.58566543827504,33.27982617948874],[35.586420043335465,33.27775336104099],[35.58792925345625,33.272255647662064],[35.58814485490211,33.266306912140465],[35.590193068637404,33.26297183769418],[35.59288808671033,33.26071833692362],[35.597631318518495,33.25684217960992],[35.60129654309765,33.254498373151534],[35.60517736912243,33.252334803692975],[35.60862699225572,33.24972041912355],[35.61175321322031,33.247917349712054],[35.61563403924515,33.24548314699922],[35.619299263824246,33.24377014889586],[35.6218864811741,33.24034405197898],[35.624258097078325,33.23872111709966],[35.62619851009083,33.23808996762136],[35.62835452454914,33.238991608338324],[35.62932473105525,33.241335830684875],[35.628785727440686,33.24386030752771],[35.627168716597055,33.24701580105642],[35.62436589780134,33.251072696769654],[35.62231768406582,33.25296585031896],[35.62145527828261,33.255129404152285],[35.62318008984926,33.256932324756406],[35.62565950647627,33.259276065921256],[35.625913916182355,33.260314503443226],[35.62605190110753,33.262275962860656],[35.625913916182355,33.26383356102241],[35.62522399155563,33.26498731953086],[35.62370615737689,33.26642949623425],[35.622602277974295,33.26902535428792],[35.623982127227634,33.270294412364876],[35.62612089357032,33.2712173521096],[35.62825965991283,33.27231333038645],[35.63122633580747,33.2734092949068],[35.63529689110476,33.274620608108705],[35.63860852931265,33.276235666236346],[35.64233412229663,33.27727390211277],[35.64550777557906,33.27813908924469],[35.64881941378695,33.27773533631688],[35.652062059532284,33.27675478571797],[35.654683773113675,33.27513973719368],[35.65654656960544,33.27438988308029],[35.65882332087352,33.27410147593719],[35.661789996768164,33.27404379439423],[35.66413574049858,33.27450524567075],[35.666412491766664,33.27577422410559],[35.668275288258656,33.2772162226658],[35.670483047063954,33.2796387266273],[35.67234584355572,33.2812536919202],[35.675381511913145,33.28309932995387],[35.67869315012109,33.28494492896033],[35.68062493907564,33.28609840852033],[35.68255672803025,33.2875402365313],[35.68414355467149,33.28944341302963],[35.68697224564079,33.29128887787209],[35.68835209489413,33.29244227357782],[35.690559853699426,33.29394166520092],[35.69297458989263,33.29497969046025],[35.69670018287661,33.29577622230181],[35.70122781323897,33.29748820051435],[35.70478523709511,33.29938034787102],[35.70780365733668,33.3016328507324],[35.70985187107203,33.303434811138345],[35.712331287699044,33.30730889993765],[35.71330149420527,33.31127290566644],[35.713948298542846,33.314425963348754],[35.71427170071155,33.317038410468],[35.715241907217774,33.319380537873656],[35.71750572239898,33.32208291436939],[35.719553936134275,33.3242447552355],[35.72257235637585,33.326046248324246],[35.72505177300292,33.326676762106786],[35.72957940336528,33.32730727132673],[35.731951019269445,33.32730727132673],[35.735077240234034,33.327217198860296],[35.73809566047561,33.326046248324246],[35.741653084331745,33.32478520707275],[35.74402470023591,33.32379437614435],[35.74661191758577,33.323434071195265],[35.749953739996045,33.32397452806015],[35.75297216023779,33.325325655558004],[35.75642178337091,33.326586688988584],[35.76105721445629,33.32847820491685],[35.76515364192693,33.33009947160161],[35.7692500693978,33.33127036766723],[35.77237629036216,33.33154057221685],[35.779059935182886,33.33424257161988],[35.78337196409939,33.33694448721536],[35.78768399301589,33.3391960195226],[35.79134921759504,33.341627609039335],[35.79652365229498,33.34459945958332],[35.79964987325957,33.346310479039914],[35.80417750362193,33.34973241708519],[35.805794514465504,33.35171347763867],[35.809675340490514,33.35378453819692],[35.81538877880496,33.3555854203683],[35.81722139109445,33.35765638880275],[35.818730601215236,33.3607177301364],[35.81883840193825,33.36332878911668],[35.81851499976938,33.36584973723819],[35.816897988925746,33.36891079033364],[35.81560438025082,33.37125152297102],[35.81722139109445,33.37350216803321],[35.819593006998616,33.37539266488221],[35.820024209890335,33.377283120639845],[35.820024209890164,33.37962362797833],[35.81991640916732,33.38214410389628],[35.81991640916732,33.3839443991082],[35.82045541278188,33.38628472715635],[35.82218022434853,33.3897951011063],[35.823473833023456,33.39186525519159],[35.8251986445901,33.394025363411345],[35.82810926410883,33.396725423191015],[35.83123548507325,33.39861541512482],[35.83382270242328,33.400415369226494],[35.83738012627941,33.401585319398805],[35.84115315158135,33.404105158572236],[35.844171571822926,33.40635495322073],[35.84837580001658,33.40860468960636],[35.85171762242703,33.41121431081956],[35.854951644114465,33.41364388767607],[35.86023387953725,33.416163377073076],[35.86040350863112,33.416288781696096],[35.86400690483919,33.4189527264997],[35.86810333230983,33.42021240332281],[35.87421778931366,33.4219867171044],[35.87766741244678,33.42354146123927],[35.8818069602068,33.42492343265178],[35.88435968132541,33.42619022045392],[35.88601550042927,33.427744889309054],[35.887947289383874,33.42901163593717],[35.889879078338595,33.43010562951133],[35.8918108672932,33.43096929890868],[35.894501573337095,33.43281176489859],[35.89595041505305,33.4347117669833],[35.89677832460501,33.436439005507225],[35.8976752266197,33.43908737113645],[35.898572128634385,33.44115994872135],[35.90064190251434,33.443232476795174],[35.903401601020846,33.44467170327164],[35.90836905833282,33.44588063505864],[35.91090021930677,33.446301598422394],[35.91370303810248,33.44980954700395],[35.91542784966913,33.45160843995927],[35.91769166485034,33.45313746963353],[35.92049448364605,33.45475641284486],[35.92469871183971,33.456105509098904],[35.929549744370945,33.45745458436289],[35.933214968949926,33.45844389288243],[35.93666459208316,33.46078221359994],[35.93763479858944,33.46419964581497],[35.93871280581868,33.46752701614855],[35.94054541810817,33.469415466812336],[35.94302483473518,33.47148372270635],[35.94291703401217,33.47319224469226],[35.94205462822896,33.47669910533523],[35.94571985280788,33.479846167116534],[35.94679786003718,33.481824261723204],[35.944210642687096,33.48470140960865],[35.94108442172268,33.48578031542684],[35.93817380220395,33.48784818067958],[35.936772392806176,33.489915996558636],[35.935370983408234,33.49279287564508],[35.935155381962375,33.49450097737923],[35.9337539725646,33.49773728825522],[35.932244762443815,33.50025433529771],[35.931813559552154,33.50214207255044],[35.93095115376872,33.50465899151362],[35.93105895449173,33.507355609182014],[35.93127455593759,33.50924319155541],[35.931813559552154,33.511400378137296],[35.93289156678122,33.51337775192752],[35.93440077690201,33.514905691631725],[35.9364489906373,33.51616397465614],[35.93871280581851,33.517691865153324],[35.94065321883102,33.51921972866512],[35.9415156246144,33.520477948941505],[35.941946827505944,33.52254498537701],[35.943779439795605,33.525151178298756],[35.94701346148304,33.526589044223215],[35.95261909907447,33.52847620696804],[35.95639212437641,33.52973429258418],[35.959733946786855,33.53117208230293],[35.96167435979919,33.53180110778658],[35.964692780040934,33.53287942654049],[35.96684879449907,33.53404759001347],[35.96846580534287,33.53539545133043],[35.96792680172837,33.53791140289536],[35.967387798113634,33.54015772634176],[35.96749559883665,33.54186489311752],[35.96868140678873,33.54357202617285],[35.97040621835538,33.544470503710045],[35.97428704438022,33.54500958574857],[35.976874261730245,33.54554866442436],[35.9794614790801,33.546357276132596],[35.98215649715297,33.54689634640101],[35.985174917394545,33.5480643204458],[35.986360725346685,33.54869322300783],[35.98840893908198,33.54869322300783],[35.98981034847975,33.54662681168719],[35.99131955860054,33.54384157041471],[35.99325997161304,33.54123594086013],[35.994876982456844,33.54015772634176],[35.997787601975574,33.539079498372985],[36.000267018602415,33.538180964791195],[36.00263863450664,33.538899792403924],[36.005225851856494,33.540337429695626],[36.007058464146155,33.54231414192776],[36.00964568149601,33.54384157041471],[36.0114782937855,33.544290808949825],[36.01600592414803,33.544021266108984],[36.01956334800417,33.54303293516671],[36.021288159570815,33.5419547430663],[36.0227973696916,33.54141564197204],[36.02464345707142,33.54289254633193],[36.02700159788509,33.54415603763448],[36.028349106921496,33.54570027969595],[36.03020193184665,33.5475252574638],[36.031381002253454,33.55019246333029],[36.033233827178606,33.5524384675673],[36.036602599769594,33.554965152540376],[36.03929761784252,33.55707066689877],[36.041655758656304,33.559316492312405],[36.04451921535866,33.561421900603136],[36.04738267206096,33.56450973992003],[36.04805642657931,33.56661502160483],[36.049235496986114,33.56900094546256],[36.05041456739309,33.57040439928613],[36.05294114683636,33.57264987794974],[36.054457094502254,33.57433394861812],[36.05833118298199,33.57728099323106],[36.05833118298199,33.578684312443215],[36.056815235316094,33.581210229525254],[36.05580460353872,33.58415703934793],[36.05513084902037,33.586963431335505],[36.053783339984136,33.58878753717897],[36.05277270820676,33.5921550158738],[36.051088321911266,33.594540233749456],[36.049067058356684,33.59594327227802],[36.046203601654156,33.598468684115176],[36.0431717063222,33.600994022003306],[36.03929761784252,33.60281783115323],[36.0347497748445,33.60492217839317],[36.03222319540123,33.607026474274846],[36.03003349321705,33.609691841994675],[36.02750691377378,33.61151546716394],[36.02498033433051,33.613058504481955],[36.02178000036895,33.615443144186145],[36.01959029818471,33.61698611119061],[36.01487401655726,33.619090112587],[36.01066305081849,33.62105380087752],[36.00712583959785,33.62245640797306],[36.00291487385908,33.62343821935531],[35.99803015360203,33.62442001954969],[35.9941560651223,33.625121298552926],[35.99011353801296,33.62680434487157],[35.98725008131049,33.62806660803312],[35.98506037912625,33.62918860420558],[35.98032388486337,33.63139889391272],[35.977521066067425,33.63274523548148],[35.97633525811551,33.63579686512321],[35.977089863175934,33.637502140474396],[35.97741326534458,33.64010486406448],[35.974610446548866,33.6408228429346],[35.97062181980107,33.6404638542478],[35.966956595221916,33.63920738205786],[35.962213363413696,33.636784133916024],[35.95747013160553,33.63507884434705],[35.952080095459905,33.63525835010222],[35.94766026582039,33.635707112853595],[35.94367163907259,33.63669438267527],[35.94000641449344,33.63857913908737],[35.93752699786643,33.6404638542478],[35.936125588468485,33.64306648831678],[35.93526318268522,33.64584852739148],[35.93537098340806,33.647912562803526],[35.93558658485392,33.649797073653474],[35.93688019352902,33.65204048515591],[35.93795820075809,33.65383517225638],[35.94076101955386,33.656347671322976],[35.94270143256631,33.65868064048766],[35.9445340448558,33.661192998081106],[35.94496524774752,33.66379500539398],[35.94539645063901,33.666845534437755],[35.94539645063901,33.66890906627327],[35.94561205208487,33.670703401541914],[35.94744466437453,33.67249769937649],[35.95197229473689,33.67402282310286],[35.95402050847224,33.67375368558703],[35.95671552654511,33.672138842804316],[35.95844033811176,33.67303598142706],[35.96124315690747,33.67465080736389],[35.963614772811695,33.67743182539482],[35.96436937787206,33.67913627586006],[35.9641537764262,33.68218626078266],[35.962213363413696,33.6844288277249],[35.959302743894966,33.68640223824099],[35.95844033811176,33.689541661598355],[35.96038075112426,33.691066482996405],[35.964477178594905,33.69286035588664],[35.96523178365527,33.69357789455796],[35.96544738510113,33.69653767824485],[35.963399171365836,33.69985610235244],[35.96027295040125,33.70299503421711],[35.957685733051335,33.70532673792616],[35.95418005354219,33.707590223595105],[35.949971513319554,33.70982854061822],[35.946935844962354,33.712181580228844],[35.944728086157056,33.71528060718725],[35.9424513348892,33.71769088416028],[35.93955365145712,33.719642011198346],[35.93631100571196,33.72004370831928],[35.9334133222801,33.719642011198346],[35.931136571012075,33.71918292647274],[35.930929593624114,33.71958462574179],[35.931481533325325,33.7207897122712],[35.93403425444393,33.722166933304436],[35.93610402832388,33.723027685229624],[35.937966824815874,33.72383104590574],[35.94100249317307,33.72423272342422],[35.94652189018626,33.72560988921663],[35.9485226716036,33.726814891158426],[35.95066143794634,33.72824939522059],[35.95245524197554,33.72962649656182],[35.95438703093015,33.73140521975455],[35.95735370682473,33.73255276353814],[35.95907851839138,33.73335603505518],[35.96114829227133,33.734216674764355],[35.96480489279253,33.73553630555176],[35.96577078726983,33.735880553723405],[35.97046227473112,33.73737227983918],[35.974394845103006,33.73892135258308],[35.97674058883365,33.74001142404228],[35.98046618181763,33.74115885271897],[35.98322588032414,33.74259311698063],[35.984467744652136,33.74356840297963],[35.98812434517339,33.74546157355513],[35.990401096441246,33.74632209182033],[35.99281583263445,33.748387300428874],[35.994264674350575,33.750050904527825],[35.995644523603744,33.752288114325154],[35.997231350245045,33.75389428023277],[35.9985422070356,33.755557777488264],[36.00068097337834,33.75750804351094],[36.00233679248237,33.759343547472724],[36.00364764927298,33.76267029822651],[36.00399261158623,33.76467775776416],[36.00447555882488,33.76662781628983],[36.00516548345149,33.768463124955076],[36.00702827994348,33.77161746988253],[36.00820115180886,33.77242037550451],[36.01013294076347,33.77282182549385],[36.01144379755402,33.77242037550451],[36.01261666941946,33.77190422275413],[36.015169390538006,33.77081455673641],[36.01696319456727,33.76943811669554],[36.019791885536506,33.76817636056734],[36.02179266695384,33.766570462260745],[36.024138410684486,33.76593956540654],[36.02593221471375,33.766341045760214],[36.02745004889243,33.76777488881197],[36.0294508303096,33.76943811669554],[36.03083067956294,33.77173217114631],[36.03296944590562,33.77414086221461],[36.03490123486023,33.77695091620359],[36.035591159486785,33.777639078639595],[36.03799727162232,33.78026623126442],[36.04058448897217,33.78241663728568],[36.042632702707465,33.78573174078622],[36.043818510659605,33.78806119620231],[36.0458667243949,33.791465670893444],[36.047591535961715,33.79495959626007],[36.04899294535949,33.79737838413371],[36.04985535114275,33.80006584605337],[36.05114895981785,33.802305333192976],[36.05222696704692,33.80463433765283],[36.053412774999,33.80785900841488],[36.055245387288494,33.810546141217],[36.05697019885514,33.813591456365714],[36.06020422054257,33.81600971763959],[36.062683637169584,33.81717404127727],[36.0647703721134,33.81785244097955],[36.06516305379665,33.817980102203364],[36.069043879821606,33.81815922582206],[36.07260130367774,33.81806966405958],[36.0755119231963,33.81726360397744],[36.07766793765461,33.81609928155905],[36.08025515500452,33.815741025318744],[36.08284237235455,33.816547099749585],[36.084567183921195,33.81806966405958],[36.08586079259612,33.81950264100402],[36.08790900633147,33.820666917092694],[36.09135862946471,33.82156250329825],[36.09642526344163,33.82245808012499],[36.100521690912444,33.82424920564097],[36.104618118383144,33.82639850673735],[36.10677413284145,33.82998055517157],[36.10774433934773,33.83338336217167],[36.10763653862472,33.835353346418515],[36.10698973428731,33.83983041448681],[36.109145748745505,33.842247933724934],[36.11130176320381,33.84206886057126],[36.11399678127674,33.84054672361327],[36.117230802964116,33.83956179701647],[36.121111628988956,33.83866639935076],[36.12413004923053,33.83795007446372],[36.12704066874926,33.83750236836045],[36.12865767959306,33.83624877879424],[36.13135269766593,33.83562197711632],[36.134586719353194,33.83902455954279],[36.136634933088715,33.84171071313796],[36.138251943932346,33.843770040380036],[36.13976115405313,33.847261829666536],[36.14030015766764,33.85003725268524],[36.14073136055936,33.852454483137876],[36.141378164896935,33.854603075004434],[36.142456172126,33.85854201971688],[36.145151190198874,33.86095900948254],[36.14795400899459,33.86104852630814],[36.1507568277903,33.860779975549576],[36.15302064297151,33.859616245836094],[36.155500059598694,33.85710969720452],[36.157117070442325,33.85442402774669],[36.160027689961055,33.85209637923879],[36.163692914540036,33.85057442091926],[36.167034736950484,33.84753042293153],[36.16919075140862,33.84582931799156],[36.17188576948149,33.843770040380036],[36.173826182494,33.84233747016117],[36.176305599121065,33.84215839719508],[36.17953962080844,33.84314329386456],[36.181695635266806,33.84502351961953],[36.18342044683328,33.84672464060321],[36.18514525839993,33.84663510876419],[36.188271479364516,33.84582931799156],[36.189133885147726,33.844933985997955],[36.19096649743739,33.84233747016117],[36.19215230538947,33.84000949233143],[36.19301471117274,33.83759190976866],[36.19506292490803,33.83589060696977],[36.197003337920535,33.834726538173925],[36.20034516033081,33.83401018026598],[36.204225986355766,33.83293563214727],[36.20616639936827,33.8322192592305],[36.20843021454925,33.83275653948084],[36.21047842828477,33.83427881518509],[36.211233033345195,33.836069693069646],[36.21166423623686,33.83768145108314],[36.21241884129728,33.83965133626697],[36.214143652863754,33.84171071313796],[36.21726987382834,33.843322364766664],[36.21877908394913,33.84502351961953],[36.21921028684079,33.846008383264575],[36.21996489190121,33.848157137266185],[36.22125850057614,33.8506639486298],[36.22255210925107,33.85084300376957],[36.224276920817715,33.850395365216514],[36.226756337444726,33.84753042293153],[36.22912795334895,33.846008383264575],[36.23149956925295,33.84556071937874],[36.23290097865089,33.846008383264575],[36.233547782988296,33.84806760692834],[36.23408678660303,33.85093253119862],[36.23473359094038,33.85281258553556],[36.23581159816945,33.85522973745134],[36.23635060178418,33.857825861463425],[36.23861441696539,33.85907913446562],[36.24055482997784,33.858989615575354],[36.242495242990174,33.85863153907627],[36.2450824603402,33.85728873883227],[36.24713067407555,33.856572570069034],[36.25004129359428,33.85558782821386],[36.25305971383585,33.85451355142243],[36.255539130462864,33.85361831044116],[36.257156141306496,33.85388688372086],[36.25823414853562,33.8549611683942],[36.26017456154807,33.85531926028278],[36.26409419583331,33.85462097970969],[36.2665779244893,33.85393343633672],[36.26844072098112,33.85370425398253],[36.2721663139651,33.853245887429466],[36.27554694463561,33.852787518416505],[36.27823765067956,33.851928069887606],[36.280514401947585,33.85049563645617],[36.283481077842225,33.84831829163761],[36.286171783886175,33.846828497418755],[36.28872450500472,33.845510580877374],[36.29127722612333,33.84459375738044],[36.29362296985397,33.843046595421356],[36.295140804032485,33.84224435226554],[36.29879740455385,33.84161401307364],[36.30266098246301,33.84121288571248],[36.30535168850696,33.840697147766946],[36.3083183644016,33.83995218746179],[36.31238891969866,33.837430735166095],[36.31480365589209,33.836341903222774],[36.317494361935985,33.83639921051304],[36.32115096245724,33.83668574638773],[36.32377267603857,33.83737342856756],[36.32577345745574,33.8358834435179],[36.32736028409704,33.83525305740835],[36.32956804290228,33.83496651673062],[36.33143083939427,33.83553959712526],[36.33281068864767,33.836227288527084],[36.33639829670608,33.835654212743236],[36.33819210073551,33.83485190019053],[36.34102079170481,33.834106888934116],[36.34315955804732,33.834221506473],[36.345229331927214,33.834909208479814],[36.34757507565786,33.83605536619541],[36.35081772140319,33.83737342856756],[36.3543363369991,33.83829032953355],[36.35951077169898,33.83840494146273],[36.36268442498158,33.83794649282402],[36.36709994259212,33.8372588152551],[36.369100724009286,33.835998058674534],[36.37165344512789,33.835596904953434],[36.37689687229056,33.83485190019053],[36.38117440497575,33.83353379893356],[36.38255425422892,33.83387765339489],[36.38407208840766,33.83576882820739],[36.38572790751169,33.83668574638773],[36.38738372661555,33.839207220662786],[36.39000544019689,33.842530868542894],[36.39207521407684,33.8450521703586],[36.39235118392753,33.84728689840688],[36.390557379898155,33.84940697098375],[36.388073651242166,33.85106861271106],[36.38565891504891,33.85250103653436],[36.38276123161705,33.85410532269873],[36.38041548788641,33.8559387557043],[36.378621683857205,33.85834507679567],[36.3776557893799,33.86201172141506],[36.377241834603865,33.86418871716495],[36.37648291751452,33.86751139313469],[36.37537903811187,33.870833939787644],[36.37393019639592,33.872953427847335],[36.37365422654523,33.8745573297731],[36.37358523408261,33.876447604061696],[36.37082553557593,33.879426133125435],[36.36813482953198,33.88183179224234],[36.36599606318947,33.88343552730669],[36.36171853050428,33.88715836748952],[36.360407673713496,33.88962108017091],[36.35971774908694,33.893057304625415],[36.35888983953498,33.8963788566702],[36.3577169676696,33.89758145568294],[36.35502626162565,33.89907036429622],[36.351714623417706,33.89952848479294],[36.34936887968712,33.89958574968199],[36.34619522640452,33.89838317893589],[36.34302157312197,33.896747655503816],[36.33767879681312,33.89531826480044],[36.331938623919484,33.89564812632],[36.327567261484944,33.89755396789491],[36.32447639915762,33.89854352268196],[36.32063489883643,33.89887337172587],[36.317544036509105,33.898580172638844],[36.31432070865327,33.897773869951095],[36.31145062220634,33.89660105243172],[36.30752081153304,33.89546487007783],[36.30553382860836,33.893632285996716],[36.30301698357022,33.89304585077389],[36.30058844888447,33.89341237326056],[36.297939138318156,33.89440197610713],[36.29608462092165,33.89546487007783],[36.295289827751674,33.89553817262197],[36.29423010352531,33.89509835641201],[36.292728827537644,33.89432867258637],[36.291360017078375,33.89333906888925],[36.290250963240965,33.892105197964554],[36.28744814444525,33.890852409849174],[36.2851843292641,33.889778576818856],[36.279902093841315,33.88834677841595],[36.27645247070808,33.88825729021778],[36.274080854803856,33.88861524244709],[36.27214044179135,33.889778576818856],[36.27030782950192,33.89040498106266],[36.26825961576657,33.891210351188306],[36.265025594079134,33.89147880620686],[36.26200717383756,33.89255261783188],[36.26136036949998,33.89461071899092],[36.26222277528342,33.89657929101668],[36.26427098901877,33.899532063849676],[36.26567239841671,33.90141104786926],[36.26782841287485,33.903916295482134],[36.268906420104145,33.90525836213516],[36.272032641068506,33.908121367046874],[36.27623686926222,33.91241569411454],[36.27893188733509,33.914831158005654],[36.282597111914015,33.918051670027864],[36.28529212998694,33.92091424519748],[36.287555945168265,33.9233294681876],[36.28884955384319,33.92583407155803],[36.289388557457755,33.92807026233953],[36.290250963240965,33.93030639441315],[36.291436771193105,33.93290023406735],[36.29316158275975,33.935315117210564],[36.29488639432634,33.93790880430589],[36.29607220227848,33.93987637629567],[36.29736581095341,33.94157560642134],[36.29898282179704,33.94318537209733],[36.30146223842405,33.94586824724422],[36.303833854328275,33.94828276257766],[36.30588206806357,33.950518363849994],[36.30782248107607,33.95364810697066],[36.30997849553421,33.9546317167497],[36.31450612589657,33.957671893271424],[36.31644653890908,33.96071196116219],[36.31838695192158,33.96384132933849],[36.31989616204237,33.96688117675728],[36.3211897707173,33.97001031796759],[36.324531593127745,33.972960545654246],[36.32787341553802,33.97465911516315],[36.33164644083996,33.975463688876914],[36.33628187192534,33.97671523285362],[36.33800668349198,33.98011218792112],[36.33951589361277,33.984045334735754],[36.342103110962626,33.98717384428369],[36.34490592975834,33.99003409509072],[36.34749314710842,33.99191108236408],[36.349325759397914,33.9924473568268],[36.3508349695187,33.99146418439301],[36.35223637891664,33.98976595066728],[36.35374558903743,33.988872129811],[36.3561172049416,33.98788891601066],[36.35859662156844,33.98922965928159],[36.36064483530396,33.99191108236408],[36.36172284253303,33.99360927321817],[36.36258524831629,33.9950393023488],[36.36351843540763,33.99792819374443],[36.365226366027684,33.99990457276152],[36.36859513861884,34.002976643615],[36.36977420902565,34.005350440445056],[36.37213234983949,34.00758454155914],[36.373816736134984,34.009260078824525],[36.37717284214108,34.01186536189766],[36.37813873661838,34.01358102515377],[36.37903563863307,34.016440386870954],[36.37938060094638,34.01964275765852],[36.37979455572241,34.022559097369026],[36.380553472811584,34.02507507463929],[36.38151936728889,34.027190725065],[36.38317518639292,34.03004962832688],[36.38393410348226,34.031879275863275],[36.38441705072091,34.03393758217959],[36.38634883967552,34.03536693218524],[36.38793566631682,34.034909542803575],[36.38993644773416,34.033880407678566],[36.39179924422598,34.03302278553741],[36.396559724149995,34.033365835434154],[36.39787058094055,34.035481279145245],[36.39887787089549,34.03711413691917],[36.39914280195211,34.03930952640218],[36.39834800878219,34.041248739847106],[36.39680257761853,34.0429683826012],[36.39605193962461,34.04509044687126],[36.396979198322924,34.046773425602964],[36.39799476737329,34.047724659676135],[36.400025905474195,34.04882222419258],[36.40157133663786,34.050102698171656],[36.40280768156879,34.0514197369468],[36.404308957556395,34.05167582544385],[36.40519206107865,34.051053894894835],[36.40647256118564,34.04995635926713],[36.407973837173074,34.0487124683803],[36.40925433728029,34.04794417371596],[36.41159456161387,34.047834416767046],[36.4136256997146,34.048163687187525],[36.414641268765195,34.04896856505468],[36.41583345852007,34.05054171337008],[36.41676071721815,34.05178557741988],[36.41790875179703,34.05324892352604],[36.41857107943849,34.0542732507713],[36.419895734721706,34.056907178280994],[36.42205933835095,34.05822411134443],[36.42409047645168,34.058845989289466],[36.427537339886555,34.059376410989955],[36.433056736899744,34.05931925363876],[36.43685132234634,34.05829041472498],[36.44030094547941,34.055889742025784],[36.44271568167284,34.053946290517786],[36.445199410328826,34.052402929638845],[36.448442056073986,34.051431169485454],[36.45161570935653,34.04983059906914],[36.45596223450451,34.04920179528142],[36.45906689532433,34.04903030253007],[36.46251651845762,34.048401492807216],[36.466173118978816,34.04794417371596],[36.47072662151476,34.046800865196985],[36.4752801240507,34.04771551324535],[36.477832845169246,34.04920179528142],[36.479212694422586,34.050745214435494],[36.48107549091458,34.05280306293514],[36.48321425725709,34.05371764623453],[36.48618093315173,34.05451789852759],[36.48907861658364,34.054632219667155],[36.490872420613016,34.054003451492235],[36.49280420956762,34.05480370108734],[36.493632119119525,34.056918610079606],[36.49446002867148,34.05914778135366],[36.495218945760826,34.06097680117534],[36.49618484023813,34.06360594801532],[36.49722835123606,34.06597425366397],[36.49927656497141,34.06802816047144],[36.50154038015256,34.07043920493328],[36.50380419533377,34.073564530817805],[36.50606801051492,34.077314769678196],[36.50757722063571,34.08017198307493],[36.50757722063571,34.08240411397088],[36.507038217021204,34.085707559721584],[36.5067148148525,34.087582431059275],[36.50563680762326,34.09017147084268],[36.50401979677963,34.09276043144877],[36.50240278593583,34.095617123674685],[36.50175598159842,34.09775957957288],[36.50175598159842,34.09999124679541],[36.501863782321266,34.10088389720664],[36.5050978040087,34.10391883817164],[36.50729262672729,34.10617533548441],[36.50901743829394,34.10783196608685],[36.511570159412486,34.10994555113837],[36.51301900112844,34.11125937468984],[36.51598567702308,34.11365847808685],[36.51764149612694,34.11548632071646],[36.51950429261893,34.117485478361914],[36.52150507403627,34.11971305549963],[36.52329887806553,34.121483651879714],[36.52640353888552,34.12359689580035],[36.52957719216806,34.12542452362527],[36.5315779735854,34.126738106721575],[36.53447565701731,34.12867988782568],[36.536545430897206,34.13090717005099],[36.53833923492647,34.13302017842517],[36.540409008806535,34.13513313397556],[36.54275475253701,34.136503671492505],[36.544686541491615,34.13775997802452],[36.54627336813286,34.137988395387424],[36.54786019477416,34.137588664597104],[36.55013694604219,34.136617881949064],[36.55137881037001,34.136503671492505],[36.55379354656344,34.13696051239236],[36.556622237532736,34.13855943609332],[36.558554026487286,34.140044123869416],[36.56034783051649,34.141985599292184],[36.56338349887392,34.145468722792714],[36.56607420491787,34.14815234295281],[36.56821297126038,34.15077878225952],[36.56759203909638,34.153348046036],[36.56600521245508,34.15557467808793],[36.565591257679216,34.15780125143266],[36.56621218984304,34.1596852291766],[36.568350956185725,34.162254221993294],[36.57076569237893,34.164023927128255],[36.574146323049604,34.166193192492415],[36.57773393110824,34.168019899036835],[36.57876881804816,34.169104487343986],[36.58042463715202,34.17127362214853],[36.58118355424136,34.17270065411793],[36.582770380882664,34.17504093431211],[36.58339131304666,34.176753293336446],[36.58339131304666,34.17886515494399],[36.583322320584045,34.180177907140205],[36.583046350733355,34.18097696369409],[36.58270138842005,34.18194723647855],[36.583322320584045,34.18360238194458],[36.58387426028531,34.1845726245341],[36.58518511707604,34.18582821602587],[36.587116906030644,34.187197930883826],[36.58863474020916,34.18782570942716],[36.59049753670115,34.18885297332861],[36.59249831811849,34.19016557010656],[36.594464603304345,34.191617249817966],[36.59586601270229,34.19313310491077],[36.59802202716048,34.195897241110174],[36.59974683872713,34.19714553098447],[36.60265745824586,34.19857212535459],[36.60427446908966,34.19910709202037],[36.607077287885375,34.1999095356544],[36.61009570812695,34.200266174818125],[36.614731139212324,34.20097944861942],[36.61731835656218,34.20249513540989],[36.61915096885167,34.2053481189709],[36.61882756668297,34.20704203227314],[36.617426157285024,34.20837930820244],[36.616132548610096,34.209538263511206],[36.61462333848931,34.21149953618885],[36.6137609327061,34.2137281997359],[36.6137609327061,34.21595680434001],[36.61462333848931,34.217917927632755],[36.615377943549674,34.21925503097833],[36.61505454138103,34.229683708736445],[36.61419213559759,34.233337897128195],[36.611820519693595,34.235744227275745],[36.60858649800616,34.23770488988151],[36.6064304835478,34.24002197772933],[36.60492127342701,34.243141033736265],[36.604166668366645,34.24545797195316],[36.602549657523014,34.247685737013626],[36.60060924451051,34.25151735497286],[36.599423436558425,34.25401226822487],[36.59856103077499,34.25677440731795],[36.5968362192084,34.26024922769142],[36.5943568025815,34.26247660115399],[36.59144618306277,34.26514937145208],[36.589290168604464,34.26800023281595],[36.58853556354404,34.270940082376],[36.58799655992948,34.27361258369331],[36.587888759206464,34.27637407914534],[36.58759985326907,34.280343347252426],[36.58677194371717,34.28228159318968],[36.58670295125455,34.284048778471515],[36.587116906030474,34.28518887828858],[36.588979702522465,34.286784992048126],[36.59022156685046,34.288267070537245],[36.59111846886515,34.289863125830834],[36.592567310581046,34.29191515237528],[36.59277428796901,34.29425212156514],[36.59187738595449,34.29590506052119],[36.588772725134504,34.297329981793155],[36.58428821506135,34.29875487889427],[36.57876881804816,34.300065762879456],[36.57414632304943,34.30131963276472],[36.5706966999162,34.30291544009117],[36.567247076783076,34.30508113010586],[36.56462536320174,34.306790845929754],[36.56093857847799,34.309148771892126],[36.55608754594675,34.311196765633326],[36.55360812931991,34.312977589149],[36.55306912570518,34.31466933649989],[36.554147132934474,34.31778562395323],[36.55447053510312,34.3191211403028],[36.55759675606771,34.32392882320721],[36.55964496980306,34.32704476687189],[36.56039957486348,34.32909232399277],[36.55856696257399,34.331941015994175],[36.554578335825965,34.33398845362336],[36.549835104017745,34.33674796440448],[36.546708883053384,34.339952443640925],[36.54498407148674,34.34262274947764],[36.54369046281181,34.34573799882111],[36.54218125269102,34.348052109125774],[36.54034864040136,34.35116715675235],[36.538623828834886,34.35392610227649],[36.5371146187141,34.35695193811705],[36.535174205701594,34.361134531320545],[36.53291039052044,34.366028790210976],[36.530151209457244,34.3689210738321],[36.529753812872286,34.37169096644959],[36.53010705428119,34.37405988089375],[36.5307252267466,34.37511675957114],[36.531608330268796,34.376100738075706],[36.53381608907392,34.37803221781826],[36.53531736506153,34.37970856035412],[36.538319917036745,34.38207724803266],[36.54114584830745,34.38411790984128],[36.542612455582685,34.385602966789065],[36.54616987943882,34.38764909383161],[36.55069750980118,34.3912074565323],[36.553931531488615,34.39378717490547],[36.55673435028433,34.396633668424215],[36.55856696257382,34.39983585790986],[36.55899816546548,34.40259320066701],[36.5578123575134,34.40517256808249],[36.55673435028433,34.407218216729746],[36.557057752453034,34.40935275329184],[36.55813575968227,34.411309363959106],[36.558890364742695,34.41362166301269],[36.55899816546548,34.41566710504105],[36.559321567634356,34.41780142599464],[36.55996837197176,34.41922427636723],[36.56115417992385,34.42233667715004],[36.55921376691134,34.423048066776175],[36.55597974522391,34.42349268221841],[36.55275865962318,34.42524622247083],[36.549860976191326,34.426782763003644],[36.54730825507278,34.42763638442966],[36.54420359425279,34.42735184492301],[36.5413749032835,34.42644131199273],[36.53937412186633,34.42627058596406],[36.5375803178369,34.426612037672555],[36.53413069470366,34.42848999713868],[36.530543086645196,34.42979885302884],[36.52750741828777,34.4312214992288],[36.52371283284123,34.433270067216256],[36.520194217245376,34.43497716884855],[36.51771048858939,34.43662733394609],[36.51384691068023,34.438732669692],[36.511777136800276,34.44055345783022],[36.51053527247228,34.442772489726224],[36.51053527247228,34.444024225307544],[36.50950038553225,34.447096587672775],[36.507223634264335,34.44829136474243],[36.50294610157914,34.44988437425093],[36.49887554628185,34.451306678494916],[36.49646081008865,34.4530703021191],[36.49542592314856,34.45483388849931],[36.49583987792465,34.45648366139574],[36.49735771210317,34.45875915673349],[36.49949647844585,34.46029508102987],[36.502325169415144,34.461830977071145],[36.502325169415144,34.462854892067696],[36.50018640307246,34.463196194275895],[36.4975646894913,34.463082427028155],[36.49508096083531,34.46268424044047],[36.49135536785133,34.46239982028635],[36.48721582009142,34.462001630442614],[36.48231735524223,34.46194474602436],[36.47686695069177,34.461774092536416],[36.472382440618446,34.46211539916328],[36.46955374964915,34.46239982028635],[36.46796692300791,34.462854892067696],[36.46569017173999,34.46427697539593],[36.46375838278544,34.46655225833166],[36.4629994656961,34.468941238665934],[36.46251651845745,34.47275208955858],[36.461550623980145,34.47622151888231],[36.45913588778677,34.478155236552595],[36.45506533248965,34.479690803953474],[36.451270747042884,34.480714499852695],[36.44830407114847,34.48128321436889],[36.446027319880386,34.48128321436889],[36.44340560629922,34.48082824306596],[36.44154280980723,34.479918293016624],[36.439749005778026,34.478496476195176],[36.438438148987245,34.47843960301822],[36.43885210376334,34.4796339315908],[36.43961102085268,34.480714499852695],[36.44133583241933,34.48236376126869],[36.442715681672496,34.48395612066287],[36.44430250831374,34.48549158129089],[36.44561336510452,34.48776628582243],[36.44623429726852,34.49060957924695],[36.44726918420838,34.493509638675846],[36.44726918420838,34.49538609397473],[36.4475451540589,34.49766052863117],[36.44789011637238,34.499934901242455],[36.4483040711483,34.50141321016696],[36.44933895808833,34.503232631316905],[36.45058082241633,34.50567741595228],[36.44885601084968,34.50670079288017],[36.44644127465648,34.507155623036965],[36.44368157614974,34.50766730399647],[36.44023195301651,34.50795156983878],[36.436586391289325,34.50784923424726],[36.43203840815045,34.508358636836476],[36.4287267699425,34.50952297392013],[36.42581252831957,34.51068729473627],[36.42289828669658,34.512033520401076],[36.42015514638098,34.512499691448454],[36.4173954478743,34.51232914136773],[36.41560164384509,34.51193118982201],[36.41325590011445,34.5105667700941],[36.411531088547804,34.50914547578839],[36.40953030713064,34.5070419157305],[36.40780549556399,34.50516572277604],[36.406011691534616,34.50334634382011],[36.404700834744006,34.50169749733925],[36.40207912116267,34.50016233509092],[36.400147332208064,34.49942317281449],[36.392972116091016,34.49874086335791],[36.38876357586838,34.49902515964345],[36.385382945197875,34.50067405898159],[36.382209291915274,34.50220921180653],[36.3782077290806,34.503232631316905],[36.37282631699276,34.50317577500704],[36.366685987815515,34.50300520584483],[36.360683643563675,34.50328948758789],[36.35757898274386,34.50419918265044],[36.35461230684922,34.50556370662906],[36.351921600805326,34.50709876940317],[36.350334774164025,34.508406393169594],[36.349782834462644,34.509543440637344],[36.34976255201417,34.50963526020479],[36.34943356012036,34.511124621484555],[36.350619368072444,34.51378946513148],[36.35255978108495,34.51565480497584],[36.35568600204937,34.51849714729275],[36.359027824459815,34.52080647902159],[36.36096823747215,34.522138756667346],[36.36366325554502,34.5245368027318],[36.36549586783451,34.527645278205284],[36.36872988952189,34.529687927486975],[36.37110150542611,34.53155291133419],[36.37368872277614,34.53332904759287],[36.37778515024684,34.53492753783206],[36.38112697265706,34.53661479978996],[36.38295958494672,34.5394564268459],[36.38457659579035,34.542475549309756],[36.386948211694346,34.544961803230535],[36.38878082398401,34.546204902339525],[36.391907044948596,34.547536773637034],[36.396003472419295,34.547803145338605],[36.40096230567332,34.54922378001396],[36.40559773675852,34.550999539251904],[36.41001756639804,34.55375189117768],[36.41238918230226,34.5583685351088],[36.412820385193754,34.56174207442086],[36.411742377964686,34.56529302061608],[36.409262961337674,34.56804489963537],[36.406136740373086,34.5697314901513],[36.40279491796281,34.57168434169381],[36.39966869699839,34.5736371473692],[36.397728283985884,34.576299990278585],[36.39783608470873,34.57851896087999],[36.398914091937854,34.58064911692924],[36.401393508564865,34.583222982651364],[36.40235509101336,34.58523586760714],[36.40235509101336,34.58728065319565],[36.401182219147984,34.588984602749576],[36.40021632467068,34.59097249973166],[36.40021632467068,34.592619578342976],[36.40076826437206,34.594209830155705],[36.40256206840132,34.59625439489918],[36.40387292519188,34.59733345044771],[36.40476982720662,34.59898040294354],[36.40511478951987,34.600400163367226],[36.40345897041601,34.60312603534743],[36.40228609855063,34.60471608601796],[36.402010128699885,34.60636289211641],[36.40263106086388,34.60755538648931],[36.40352796287863,34.609145352345365],[36.40518378198266,34.61050815598861],[36.40821945033986,34.6118141551554],[36.41077217145846,34.6118141551554],[36.41284194533836,34.61130311444981],[36.41470474183035,34.61039458987267],[36.41622257600892,34.60920213627725],[36.417533432799644,34.607896096021534],[36.41863731220229,34.607101104938124],[36.42064267515019,34.60600154696954],[36.42367457048215,34.60572427062169],[36.42620114992536,34.60461515597211],[36.427548658961825,34.602674169689294],[36.42923304525732,34.59920800991978],[36.42973836114601,34.59712824462275],[36.43108587018247,34.594909770907975],[36.43293869510762,34.593523194749366],[36.43647590632821,34.5932458767403],[36.44001311754886,34.5932458767403],[36.44641378547186,34.5926912379453],[36.44961411943342,34.59255257766807],[36.451130067099314,34.593939170026886],[36.45247757613572,34.59629632392296],[36.453825085172184,34.599069360520275],[36.45534103283825,34.60184230453763],[36.45685698050414,34.604476515599174],[36.458204489540606,34.60683337045731],[36.45955199857701,34.61002194996388],[36.46022575309513,34.613349032805445],[36.4598888758361,34.61570563580972],[36.459046682688324,34.618755258031],[36.45753073502243,34.62097309472216],[36.45601478735637,34.62235921255706],[36.45416196243127,34.62429973863044],[36.45466727831996,34.626240219324586],[36.45736229639283,34.628596456301295],[36.45938355994741,34.63081402997659],[36.461404823502164,34.634278870175535],[36.4627523325384,34.63663487884543],[36.46224701664988,34.63829790349678],[36.46073106898382,34.63940656807205],[36.458372928170206,34.63912940331761],[36.4544988396903,34.63926798581065],[36.450793189840226,34.63926798581065],[36.447929733137755,34.63885223763697],[36.44422408328762,34.637604980611115],[36.440518433437546,34.636080529884964],[36.43731809947599,34.63469464127411],[36.43495995866215,34.632892951462395],[36.43192806333025,34.631368414133476],[36.428222413480114,34.62998244679454],[36.425527395407244,34.62845785597847],[36.422327061445685,34.626240219324586],[36.41811609570692,34.625963010575106],[36.415252639004564,34.62651742714786],[36.41255762093169,34.628180654638356],[36.41003104148842,34.62998244679454],[36.40733602341555,34.63219998342248],[36.404135689453994,34.634278870175535],[36.401609110010725,34.636219117472365],[36.39975628508557,34.637604980611115],[36.39824033741968,34.637604980611115],[36.39571375797624,34.636219117472365],[36.39352405579206,34.634278870175535],[36.391334353607874,34.63247717133311],[36.388134019646486,34.63150700959392],[36.383754615278065,34.63219998342248]]]}}]}